O3B MPOWER F1           
1 54755U 22174A   24003.84231799 -.00000012  00000+0  00000+0 0  9996
2 54755   0.0574  14.2638 0006090 281.9519  81.6829  5.00118466 20566
